NORAD_CAT_ID,OBJECT_NAME,OBJECT_TYPE,EPOCH,MEAN_MOTION,ECCENTRICITY,INCLINATION,RA_OF_ASC_NODE,ARG_OF_PERICENTER,MEAN_ANOMALY,BSTAR,MEAN_MOTION_DOT,MEAN_MOTION_DDOT,TLE_LINE0,TLE_LINE1,TLE_LINE2,SEMIMAJOR_AXIS,PERIOD,APOGEE,PERIGEE,DECAYED
52464.0,STARLINK-3904,PAYLOAD,2023-01-27 12:41:50,15.08842193,0.0001465999999999,53.2166,124.0363,96.075,264.041,0.00012377,1.682e-05,0.0,0 STARLINK-3904,1 52464U 22049P   23027.52905733  .00001682  00000-0  12377-3 0  9996,2 52464  53.2166 124.0363 0001466  96.0750 264.0410 15.08842193 40731,6917.874,95.437,540.753,538.725,0.0
52464.0,STARLINK-3904,PAYLOAD,2023-01-28 12:32:37,15.08846734,0.0001417,53.2178,119.5762,105.2478,254.867,4.5727e-05,4.4e-06,0.0,0 STARLINK-3904,1 52464U 22049P   23028.52265341  .00000440  00000-0  45727-4 0  9998,2 52464  53.2178 119.5762 0001417 105.2478 254.8670 15.08846734 40721,6917.86,95.437,540.705,538.745,0.0
52464.0,STARLINK-3904,PAYLOAD,2023-01-28 15:43:23,15.08849488,0.0001381,53.2175,118.981,103.7996,256.315,6.2795e-05,7.12e-06,0.0,0 STARLINK-3904,1 52464U 22049P   23028.65513036  .00000712  00000-0  62795-4 0  9995,2 52464  53.2175 118.9810 0001381 103.7996 256.3150 15.08849488 40902,6917.851,95.437,540.672,538.761,0.0
52464.0,STARLINK-3904,PAYLOAD,2023-01-29 06:01:52,15.08830008,0.0001258,53.218,116.3061,99.9995,260.1139,5.0329e-05,5.13e-06,0.0,0 STARLINK-3904,1 52464U 22049P   23029.25130317  .00000513  00000-0  50329-4 0  9998,2 52464  53.2180 116.3061 0001258  99.9995 260.1139 15.08830008 40993,6917.911,95.438,540.646,538.906,0.0
52464.0,STARLINK-3904,PAYLOAD,2023-01-29 13:58:48,15.08836596,0.0001193,53.2174,114.8182,95.2413,264.8715,1.9931e-05,2.9e-07,0.0,0 STARLINK-3904,1 52464U 22049P   23029.58250059  .00000029  00000-0  19931-4 0  9996,2 52464  53.2174 114.8182 0001193  95.2413 264.8715 15.08836596 40882,6917.891,95.438,540.581,538.93,0.0
52464.0,STARLINK-3904,PAYLOAD,2023-01-30 12:14:11,15.08839098,0.000129,53.2174,110.6551,103.6904,256.4232,7.9531e-05,9.78e-06,0.0,0 STARLINK-3904,1 52464U 22049P   23030.50985978  .00000978  00000-0  79531-4 0  9990,2 52464  53.2174 110.6551 0001290 103.6904 256.4232 15.08839098 41021,6917.883,95.438,540.641,538.856,0.0
52464.0,STARLINK-3904,PAYLOAD,2023-01-30 13:49:34,15.08840856,0.0001381,53.2174,110.3575,107.5879,252.5264,0.00010362,1.362e-05,0.0,0 STARLINK-3904,1 52464U 22049P   23030.57609812  .00001362  00000-0  10362-3 0  9991,2 52464  53.2174 110.3575 0001381 107.5879 252.5264 15.08840856 41193,6917.878,95.438,540.698,538.787,0.0
52464.0,STARLINK-3904,PAYLOAD,2023-01-31 05:43:26,15.08830709,0.0001277,53.2175,107.3831,106.8407,253.2725,0.00011188,1.493e-05,0.0,0 STARLINK-3904,1 52464U 22049P   23031.23850559  .00001493  00000-0  11188-3 0  9993,2 52464  53.2175 107.3831 0001277 106.8407 253.2725 15.08830709 41295,6917.909,95.438,540.657,538.89,0.0
52464.0,STARLINK-3904,PAYLOAD,2023-01-31 13:40:22,15.08841259,0.0001206,53.2175,105.8974,94.1429,265.9701,0.00014631,2.042e-05,0.0,0 STARLINK-3904,1 52464U 22049P   23031.56969940  .00002042  00000-0  14631-3 0  9991,2 52464  53.2175 105.8974 0001206  94.1429 265.9701 15.08841259 41343,6917.877,95.437,540.576,538.907,0.0
52464.0,STARLINK-3904,PAYLOAD,2023-01-31 21:37:17,15.08840709,0.0001223,53.2178,104.41,87.8155,272.2978,8.6986e-05,1.097e-05,0.0,0 STARLINK-3904,1 52464U 22049P   23031.90090167  .00001097  00000-0  86986-4 0  9997,2 52464  53.2178 104.4100 0001223  87.8155 272.2978 15.08840709 41230,6917.878,95.438,540.589,538.897,0.0
52464.0,STARLINK-3904,PAYLOAD,2023-02-01 13:31:08,15.08850289,0.0001352,53.2178,101.4368,100.7509,259.3635,0.00010957,1.457e-05,0.0,0 STARLINK-3904,1 52464U 22049P   23032.56329379  .00001457  00000-0  10957-3 0  9994,2 52464  53.2178 101.4368 0001352 100.7509 259.3635 15.08850289 41335,6917.849,95.437,540.649,538.779,0.0
52464.0,STARLINK-3904,PAYLOAD,2023-02-01 21:28:05,15.08834085,0.0001855,53.2195,99.9496,80.8801,279.2402,-7.784e-06,-4.12e-06,0.0,0 STARLINK-3904,1 52464U 22049P   23032.89450983 -.00000412  00000-0 -77840-5 0  9994,2 52464  53.2195  99.9496 0001855  80.8801 279.2402 15.08834085 41540,6917.898,95.438,541.047,538.48,0.0
52464.0,STARLINK-3904,PAYLOAD,2023-02-02 11:46:33,15.0883705,0.0001297,53.2176,97.2743,86.2929,273.8211,-2.9019e-05,-7.5e-06,0.0,0 STARLINK-3904,1 52464U 22049P   23033.49066897 -.00000750  00000-0 -29019-4 0  9997,2 52464  53.2176  97.2743 0001297  86.2929 273.8211 15.08837050 41471,6917.889,95.438,540.652,538.857,0.0
52464.0,STARLINK-3904,PAYLOAD,2023-02-03 03:40:25,15.0883421,0.0001412,53.2179,94.3,84.4408,275.6745,1.4729e-05,-5.4e-07,0.0,0 STARLINK-3904,1 52464U 22049P   23034.15307177 -.00000054  00000-0  14729-4 0  9998,2 52464  53.2179  94.3000 0001412  84.4408 275.6745 15.08834210 41735,6917.898,95.438,540.74,538.786,0.0
52464.0,STARLINK-3904,PAYLOAD,2023-02-03 08:26:34,15.08837709,0.0001302,53.2173,93.4084,84.4398,275.6742,5.6187e-05,6.06e-06,0.0,0 STARLINK-3904,1 52464U 22049P   23034.35178886  .00000606  00000-0  56187-4 0  9999,2 52464  53.2173  93.4084 0001302  84.4398 275.6742 15.08837709 41606,6917.887,95.438,540.653,538.852,0.0
52464.0,STARLINK-3904,PAYLOAD,2023-02-04 08:17:21,15.08833218,0.000144,53.2176,88.9498,79.6293,280.4861,0.0003229,4.854e-05,0.0,0 STARLINK-3904,1 52464U 22049P   23035.34538806  .00004854  00000-0  32290-3 0  9998,2 52464  53.2176  88.9498 0001440  79.6293 280.4861 15.08833218 41911,6917.901,95.438,540.762,538.77,0.0
52464.0,STARLINK-3904,PAYLOAD,2023-02-04 09:52:44,15.08846033,0.0001573,53.2176,88.6526,73.5678,286.5487,0.00015999,2.26e-05,0.0,0 STARLINK-3904,1 52464U 22049P   23035.41162337  .00002260  00000-0  15999-3 0  9994,2 52464  53.2176  88.6526 0001573  73.5678 286.5487 15.08846033 41928,6917.862,95.437,540.815,538.639,0.0
52464.0,STARLINK-3904,PAYLOAD,2023-02-04 21:00:26,15.08847667,0.0001564,53.2176,86.5711,73.7446,286.3718,0.00017157,2.444e-05,0.0,0 STARLINK-3904,1 52464U 22049P   23035.87530096  .00002444  00000-0  17157-3 0  9997,2 52464  53.2176  86.5711 0001564  73.7446 286.3718 15.08847667 41835,6917.857,95.437,540.804,538.64,0.0
52464.0,STARLINK-3904,PAYLOAD,2023-02-05 03:21:59,15.08838319,0.0001391,53.216,85.381,76.4101,283.7046,8.4081e-05,1.05e-05,0.0,0 STARLINK-3904,1 52464U 22049P   23036.14026941  .00001050  00000-0  84081-4 0  9990,2 52464  53.2160  85.3810 0001391  76.4101 283.7046 15.08838319 42033,6917.886,95.438,540.713,538.788,0.0
52464.0,STARLINK-3904,PAYLOAD,2023-02-05 12:54:17,15.0884126,0.0001232,53.2176,83.594,103.2998,256.8131,3.2695e-05,2.33e-06,0.0,0 STARLINK-3904,1 52464U 22049P   23036.53770750  .00000233  00000-0  32695-4 0  9993,2 52464  53.2176  83.5940 0001232 103.2998 256.8131 15.08841260 41934,6917.877,95.437,540.594,538.889,0.0
52464.0,STARLINK-3904,PAYLOAD,2023-02-06 11:09:41,15.08849707,0.0001511,53.2182,79.4335,97.5317,262.5847,4.7785e-05,4.73e-06,0.0,0 STARLINK-3904,1 52464U 22049P   23037.46506156  .00000473  00000-0  47785-4 0  9995,2 52464  53.2182  79.4335 0001511  97.5317 262.5847 15.08849707 42239,6917.851,95.437,540.761,538.67,0.0
52464.0,STARLINK-3904,PAYLOAD,2023-02-06 12:45:04,15.08851933,0.0001438,53.2185,79.1337,98.9792,261.1363,4.403e-05,4.13e-06,0.0,0 STARLINK-3904,1 52464U 22049P   23037.53129989  .00000413  00000-0  44030-4 0  9992,2 52464  53.2185  79.1337 0001438  98.9792 261.1363 15.08851933 42086,6917.844,95.437,540.704,538.714,0.0
52464.0,STARLINK-3904,PAYLOAD,2023-02-06 19:06:37,15.08844401,0.0001477,53.2184,77.9446,100.1393,259.9765,8.998e-05,1.145e-05,0.0,0 STARLINK-3904,1 52464U 22049P   23037.79626304  .00001145  00000-0  89980-4 0  9999,2 52464  53.2184  77.9446 0001477 100.1393 259.9765 15.08844401 42126,6917.867,95.437,540.754,538.71,0.0
52464.0,STARLINK-3904,PAYLOAD,2023-02-07 06:14:19,15.08838922,0.0001379,53.2176,75.8636,101.5772,258.5375,9.5491e-05,1.232e-05,0.0,0 STARLINK-3904,1 52464U 22049P   23038.25994679  .00001232  00000-0  95491-4 0  9995,2 52464  53.2176  75.8636 0001379 101.5772 258.5375 15.08838922 42350,6917.884,95.438,540.703,538.795,0.0
52464.0,STARLINK-3904,PAYLOAD,2023-02-07 12:35:51,15.08848501,0.0001383,53.2183,74.6746,101.013,259.1018,0.0001542,2.168e-05,0.0,0 STARLINK-3904,1 52464U 22049P   23038.52490023  .00002168  00000-0  15420-3 0  9991,2 52464  53.2183  74.6746 0001383 101.0130 259.1018 15.08848501 42394,6917.854,95.437,540.676,538.763,0.0
52464.0,STARLINK-3904,PAYLOAD,2023-02-08 07:40:29,15.08839803,0.0001392,53.2161,71.1042,110.6327,249.4814,-1.5837e-06,-3.13e-06,0.0,0 STARLINK-3904,1 52464U 22049P   23039.31978644 -.00000313  00000-0 -15837-5 0  9995,2 52464  53.2161  71.1042 0001392 110.6327 249.4814 15.08839803 42510,6917.881,95.438,540.709,538.783,0.0
52464.0,STARLINK-3904,PAYLOAD,2023-02-08 10:51:15,15.08847355,0.0001338,53.2177,70.511,102.4342,257.68,0.00011594,1.558e-05,0.0,0 STARLINK-3904,1 52464U 22049P   23039.45226376  .00001558  00000-0  11594-3 0  9992,2 52464  53.2177  70.5110 0001338 102.4342 257.6800 15.08847355 42373,6917.858,95.437,540.649,538.797,0.0
52464.0,STARLINK-3904,PAYLOAD,2023-02-08 18:48:11,15.08847144,0.0001256,53.2178,69.0232,99.4869,260.6265,1.4609e-05,-5.5e-07,0.0,0 STARLINK-3904,1 52464U 22049P   23039.78346322 -.00000055  00000-0  14609-4 0  9995,2 52464  53.2178  69.0232 0001256  99.4869 260.6265 15.08847144 42421,6917.859,95.437,540.592,538.855,0.0
52464.0,STARLINK-3904,PAYLOAD,2023-02-09 09:06:39,15.08841066,0.0001515,53.2175,66.3478,84.4645,275.6519,1.557e-05,-4e-07,0.0,0 STARLINK-3904,1 52464U 22049P   23040.37962734 -.00000040  00000-0  15570-4 0  9995,2 52464  53.2175  66.3478 0001515  84.4645 275.6519 15.08841066 42519,6917.877,95.437,540.79,538.694,0.0
52464.0,STARLINK-3904,PAYLOAD,2023-02-09 18:38:58,15.08841438,0.000121,53.2174,64.5635,92.7163,267.3968,1.4398e-05,-5.9e-07,0.0,0 STARLINK-3904,1 52464U 22049P   23040.77706678 -.00000059  00000-0  14398-4 0  9999,2 52464  53.2174  64.5635 0001210  92.7163 267.3968 15.08841438 42735,6917.876,95.437,540.578,538.904,0.0
